[
    {
        "Altitude(m)": 605470.7458165181,
        "Argument of Periapsis(deg)": 0.0,
        "Eccentricity": 0.0,
        "Inclination(deg)": 60.0,
        "Latitude(deg)": 27.988062692314035,
        "Longitude(deg)": -32.73710217534601,
        "Mean Anomaly(deg)": -212.7273,
        "RAAN(deg)": 265.0,
        "Satellite Name": "Test1 1175",
        "Satellite Number": 1175,
        "Semi-Major Axis(m)": 6980739.136638005,
        "Time(s)": 0
    },
    {
        "Altitude(m)": 605395.7844197624,
        "Argument of Periapsis(deg)": 0.00010418945913296404,
        "Eccentricity": 0.0,
        "Inclination(deg)": 60.0,
        "Latitude(deg)": 27.473753955073978,
        "Longitude(deg)": -32.38391379039799,
        "Mean Anomaly(deg)": -212.1071938545382,
        "RAAN(deg)": 264.99957995086027,
        "Satellite Name": "Test1 1175",
        "Satellite Number": 1175,
        "Semi-Major Axis(m)": 6980739.136638005,
        "Time(s)": 10
    },
    {
        "Altitude(m)": 605322.6256923911,
        "Argument of Periapsis(deg)": 0.0002083789182659281,
        "Eccentricity": 0.0,
        "Inclination(deg)": 60.0,
        "Latitude(deg)": 26.958299421951256,
        "Longitude(deg)": -32.034373594635056,
        "Mean Anomaly(deg)": -211.48708770907638,
        "RAAN(deg)": 264.99915990172053,
        "Satellite Name": "Test1 1175",
        "Satellite Number": 1175,
        "Semi-Major Axis(m)": 6980739.136638005,
        "Time(s)": 20
    },
    {
        "Altitude(m)": 605251.3253086222,
        "Argument of Periapsis(deg)": 0.00031256837739889213,
        "Eccentricity": 0.0,
        "Inclination(deg)": 60.0,
        "Latitude(deg)": 26.441733595326568,
        "Longitude(deg)": -31.688376938802822,
        "Mean Anomaly(deg)": -210.86698156361456,
        "RAAN(deg)": 264.9987398525808,
        "Satellite Name": "Test1 1175",
        "Satellite Number": 1175,
        "Semi-Major Axis(m)": 6980739.136638005,
        "Time(s)": 30
    },
    {
        "Altitude(m)": 605181.9382147291,
        "Argument of Periapsis(deg)": 0.0004167578365318562,
        "Eccentricity": 0.0,
        "Inclination(deg)": 60.0,
        "Latitude(deg)": 25.9240901232908,
        "Longitude(deg)": -31.345820906100904,
        "Mean Anomaly(deg)": -210.2468754181527,
        "RAAN(deg)": 264.99831980344106,
        "Satellite Name": "Test1 1175",
        "Satellite Number": 1175,
        "Semi-Major Axis(m)": 6980739.136638005,
        "Time(s)": 40
    },
    {
        "Altitude(m)": 605114.5186000974,
        "Argument of Periapsis(deg)": 0.0005209472956648203,
        "Eccentricity": 0.0,
        "Inclination(deg)": 60.0,
        "Latitude(deg)": 25.40540183219805,
        "Longitude(deg)": -31.006605256060556,
        "Mean Anomaly(deg)": -209.62676927269084,
        "RAAN(deg)": 264.99789975430133,
        "Satellite Name": "Test1 1175",
        "Satellite Number": 1175,
        "Semi-Major Axis(m)": 6980739.136638005,
        "Time(s)": 50
    },
    {
        "Altitude(m)": 605049.1198686003,
        "Argument of Periapsis(deg)": 0.0006251367547977843,
        "Eccentricity": 0.0,
        "Inclination(deg)": 60.0,
        "Latitude(deg)": 24.88570075810321,
        "Longitude(deg)": -30.670631856348415,
        "Mean Anomaly(deg)": -209.006663127229,
        "RAAN(deg)": 264.99747970516154,
        "Satellite Name": "Test1 1175",
        "Satellite Number": 1175,
        "Semi-Major Axis(m)": 6980739.136638005,
        "Time(s)": 60
    },
    {
        "Altitude(m)": 604985.7946103218,
        "Argument of Periapsis(deg)": 0.0007293262139307483,
        "Eccentricity": 0.0,
        "Inclination(deg)": 60.0,
        "Latitude(deg)": 24.365018177123474,
        "Longitude(deg)": -30.337804115427815,
        "Mean Anomaly(deg)": -208.38655698176717,
        "RAAN(deg)": 264.99705965602186,
        "Satellite Name": "Test1 1175",
        "Satellite Number": 1175,
        "Semi-Major Axis(m)": 6980739.136638005,
        "Time(s)": 70
    },
    {
        "Altitude(m)": 604924.5945736537,
        "Argument of Periapsis(deg)": 0.0008335156730637124,
        "Eccentricity": 0.0,
        "Inclination(deg)": 60.0,
        "Latitude(deg)": 23.843384634757474,
        "Longitude(deg)": -30.008027928996498,
        "Mean Anomaly(deg)": -207.76645083630532,
        "RAAN(deg)": 264.99663960688207,
        "Satellite Name": "Test1 1175",
        "Satellite Number": 1175,
        "Semi-Major Axis(m)": 6980739.136638005,
        "Time(s)": 80
    },
    {
        "Altitude(m)": 604865.5706377103,
        "Argument of Periapsis(deg)": 0.0009377051321966765,
        "Eccentricity": 0.0,
        "Inclination(deg)": 60.0,
        "Latitude(deg)": 23.320829974206415,
        "Longitude(deg)": -29.681211114498776,
        "Mean Anomaly(deg)": -207.14634469084353,
        "RAAN(deg)": 264.9962195577423,
        "Satellite Name": "Test1 1175",
        "Satellite Number": 1175,
        "Semi-Major Axis(m)": 6980739.136638005,
        "Time(s)": 90
    },
    {
        "Altitude(m)": 604808.7727851983,
        "Argument of Periapsis(deg)": 0.0010418945913296407,
        "Eccentricity": 0.0,
        "Inclination(deg)": 60.0,
        "Latitude(deg)": 22.79738336372881,
        "Longitude(deg)": -29.357262846611206,
        "Mean Anomaly(deg)": -206.52623854538172,
        "RAAN(deg)": 264.99579950860254,
        "Satellite Name": "Test1 1175",
        "Satellite Number": 1175,
        "Semi-Major Axis(m)": 6980739.136638005,
        "Time(s)": 100
    },
    {
        "Altitude(m)": 604754.2500756357,
        "Argument of Periapsis(deg)": 0.0011460840504626045,
        "Eccentricity": 0.0,
        "Inclination(deg)": 60.0,
        "Latitude(deg)": 22.273073323064907,
        "Longitude(deg)": -29.03609460660312,
        "Mean Anomaly(deg)": -205.90613239991987,
        "RAAN(deg)": 264.9953794594628,
        "Satellite Name": "Test1 1175",
        "Satellite Number": 1175,
        "Semi-Major Axis(m)": 6980739.136638005,
        "Time(s)": 110
    },
    {
        "Altitude(m)": 604702.0506190095,
        "Argument of Periapsis(deg)": 0.0012502735095955685,
        "Eccentricity": 0.0,
        "Inclination(deg)": 60.0,
        "Latitude(deg)": 21.747927748969385,
        "Longitude(deg)": -28.71761961984148,
        "Mean Anomaly(deg)": -205.28602625445808,
        "RAAN(deg)": 264.9949594103231,
        "Satellite Name": "Test1 1175",
        "Satellite Number": 1175,
        "Semi-Major Axis(m)": 6980739.136638005,
        "Time(s)": 120
    },
    {
        "Altitude(m)": 604652.2215498516,
        "Argument of Periapsis(deg)": 0.0013544629687285324,
        "Eccentricity": 0.0,
        "Inclination(deg)": 60.0,
        "Latitude(deg)": 21.221973939883462,
        "Longitude(deg)": -28.401752294324687,
        "Mean Anomaly(deg)": -204.66592010899623,
        "RAAN(deg)": 264.99453936118334,
        "Satellite Name": "Test1 1175",
        "Satellite Number": 1175,
        "Semi-Major Axis(m)": 6980739.136638005,
        "Time(s)": 130
    },
    {
        "Altitude(m)": 604604.809001764,
        "Argument of Periapsis(deg)": 0.0014586524278614966,
        "Eccentricity": 0.0,
        "Inclination(deg)": 60.0,
        "Latitude(deg)": 20.6952386197794,
        "Longitude(deg)": -28.088409173125545,
        "Mean Anomaly(deg)": -204.04581396353439,
        "RAAN(deg)": 264.9941193120436,
        "Satellite Name": "Test1 1175",
        "Satellite Number": 1175,
        "Semi-Major Axis(m)": 6980739.136638005,
        "Time(s)": 140
    },
    {
        "Altitude(m)": 604559.858082397,
        "Argument of Periapsis(deg)": 0.0015628418869944607,
        "Eccentricity": 0.0,
        "Inclination(deg)": 60.0,
        "Latitude(deg)": 20.167747961212513,
        "Longitude(deg)": -27.77750837499891,
        "Mean Anomaly(deg)": -203.42570781807257,
        "RAAN(deg)": 264.9936992629039,
        "Satellite Name": "Test1 1175",
        "Satellite Number": 1175,
        "Semi-Major Axis(m)": 6980739.136638005,
        "Time(s)": 150
    },
    {
        "Altitude(m)": 604517.4128489051,
        "Argument of Periapsis(deg)": 0.0016670313461274247,
        "Eccentricity": 0.0,
        "Inclination(deg)": 60.0,
        "Latitude(deg)": 19.6395276076109,
        "Longitude(deg)": -27.468969036024163,
        "Mean Anomaly(deg)": -202.80560167261072,
        "RAAN(deg)": 264.99327921376414,
        "Satellite Name": "Test1 1175",
        "Satellite Number": 1175,
        "Semi-Major Axis(m)": 6980739.136638005,
        "Time(s)": 160
    },
    {
        "Altitude(m)": 604477.5162838768,
        "Argument of Periapsis(deg)": 0.0017712208052603888,
        "Eccentricity": 0.0,
        "Inclination(deg)": 60.0,
        "Latitude(deg)": 19.110602694832096,
        "Longitude(deg)": -27.162712265150123,
        "Mean Anomaly(deg)": -202.18549552714884,
        "RAAN(deg)": 264.99285916462435,
        "Satellite Name": "Test1 1175",
        "Satellite Number": 1175,
        "Semi-Major Axis(m)": 6980739.136638005,
        "Time(s)": 170
    },
    {
        "Altitude(m)": 604440.2102717527,
        "Argument of Periapsis(deg)": 0.001875410264393353,
        "Eccentricity": 0.0,
        "Inclination(deg)": 60.0,
        "Latitude(deg)": 18.580997872019076,
        "Longitude(deg)": -26.85866058788623,
        "Mean Anomaly(deg)": -201.56538938168705,
        "RAAN(deg)": 264.9924391154846,
        "Satellite Name": "Test1 1175",
        "Satellite Number": 1175,
        "Semi-Major Axis(m)": 6980739.136638005,
        "Time(s)": 180
    },
    {
        "Altitude(m)": 604405.5355757946,
        "Argument of Periapsis(deg)": 0.0019795997235263173,
        "Eccentricity": 0.0,
        "Inclination(deg)": 60.0,
        "Latitude(deg)": 18.050737321784514,
        "Longitude(deg)": -26.55673739100085,
        "Mean Anomaly(deg)": -200.9452832362252,
        "RAAN(deg)": 264.9920190663449,
        "Satellite Name": "Test1 1175",
        "Satellite Number": 1175,
        "Semi-Major Axis(m)": 6980739.136638005,
        "Time(s)": 190
    }
]